{
"type": "FeatureCollection",
"name": "irvine-boundary-current",
"xy_coordinate_resolution": 1e-07,
"features": [
{"type":"Feature","properties":{"CITY":"Irvine","COUNTY":"Orange"},"geometry":{"type":"Polygon","coordinates":[[[-117.6780379,33.6850347],[-117.6780405,33.6850365],[-117.6784492,33.6853196],[-117.6784492,33.6853196],[-117.6808904,33.6870111],[-117.6861077,33.6906539],[-117.6875506,33.6916613],[-117.687557,33.6916657],[-117.6875057,33.691717],[-117.6875051,33.6917176],[-117.687886,33.6919735],[-117.6887748,33.6924803],[-117.6888538,33.6925468],[-117.6893848,33.69282],[-117.6925777,33.6943715],[-117.6927105,33.6944414],[-117.6927853,33.6944808],[-117.6928183,33.6945003],[-117.6928854,33.69454],[-117.692983,33.6946021],[-117.693044,33.694644],[-117.6930779,33.6946671],[-117.6931699,33.6947349],[-117.693259,33.6948054],[-117.693345,33.6948785],[-117.6934168,33.694944],[-117.6934279,33.6949541],[-117.6937269,33.6950538],[-117.6937322,33.6950522],[-117.6938961,33.6950039],[-117.6939813,33.6949803],[-117.6941232,33.695347],[-117.6941502,33.6955586],[-117.6941504,33.6955601],[-117.694428,33.6957435],[-117.6945136,33.6957213],[-117.6945151,33.6957209],[-117.6946011,33.6958049],[-117.6945903,33.6958506],[-117.6945901,33.6958514],[-117.6954428,33.6964166],[-117.6960405,33.6967241],[-117.6961309,33.6967071],[-117.6962324,33.6967656],[-117.6962398,33.6967699],[-117.6962717,33.6968537],[-117.6962724,33.6968557],[-117.6977873,33.697517],[-117.6980641,33.6975344],[-117.698066,33.6975345],[-117.6984288,33.698029],[-117.6984323,33.6980338],[-117.6990339,33.6980619],[-117.6995966,33.6980783],[-117.6996031,33.6980785],[-117.6996106,33.6981544],[-117.6996111,33.6981602],[-117.6996832,33.6981552],[-117.6998544,33.6981931],[-117.6999947,33.6982972],[-117.7002846,33.6984774],[-117.7003492,33.6984518],[-117.7003507,33.6984512],[-117.7004782,33.6985988],[-117.7004819,33.6986031],[-117.7016267,33.6993168],[-117.7016309,33.6993195],[-117.701917,33.6996378],[-117.7019197,33.6996407],[-117.7025327,33.6998819],[-117.7028583,33.7000373],[-117.7033389,33.7002668],[-117.7039445,33.7004677],[-117.7039455,33.7004681],[-117.7040232,33.7005276],[-117.7041473,33.7006499],[-117.704153,33.7006555],[-117.7046406,33.700847],[-117.7054618,33.7008063],[-117.7058912,33.7009512],[-117.706766,33.701398],[-117.7081301,33.7014573],[-117.7085154,33.7014968],[-117.7085179,33.7014971],[-117.7088315,33.7019772],[-117.7088558,33.7024227],[-117.708856,33.7024263],[-117.7095954,33.7026278],[-117.7095987,33.7026287],[-117.7097581,33.7029656],[-117.7097587,33.702967],[-117.7105809,33.7035826],[-117.7112037,33.70374],[-117.711206,33.7037406],[-117.7114003,33.7039176],[-117.7114627,33.7039744],[-117.7116277,33.7040526],[-117.7116287,33.7040531],[-117.7117466,33.7041528],[-117.7117519,33.7041574],[-117.7121825,33.7041584],[-117.7124402,33.7041604],[-117.7124414,33.7041604],[-117.7124472,33.7041751],[-117.7124499,33.7041856],[-117.7124526,33.7041934],[-117.7124557,33.704201],[-117.7124607,33.704211],[-117.7124665,33.7042206],[-117.7124731,33.7042299],[-117.7124785,33.7042366],[-117.7124839,33.7042425],[-117.7124844,33.704243],[-117.7124928,33.7042511],[-117.712502,33.7042588],[-117.7125117,33.7042658],[-117.7125194,33.7042707],[-117.7125274,33.7042753],[-117.7125385,33.7042808],[-117.7125501,33.7042856],[-117.712559,33.7042888],[-117.7125681,33.7042915],[-117.7125773,33.7042939],[-117.7129377,33.7043764],[-117.7129462,33.7043797],[-117.712952,33.7043831],[-117.7129548,33.7043848],[-117.7129618,33.7043914],[-117.7129686,33.7044028],[-117.7129732,33.7044179],[-117.712976,33.7044256],[-117.7129805,33.7044357],[-117.7129844,33.7044431],[-117.7129888,33.7044503],[-117.7129936,33.7044573],[-117.7129989,33.704464],[-117.7130066,33.7044727],[-117.7130099,33.7044759],[-117.713015,33.7044808],[-117.7130241,33.7044885],[-117.7130338,33.7044956],[-117.7130441,33.704502],[-117.7130522,33.7045065],[-117.7130605,33.7045106],[-117.7130691,33.7045143],[-117.7130779,33.7045176],[-117.7130869,33.7045205],[-117.7130961,33.704523],[-117.7131086,33.7045257],[-117.7131213,33.7045276],[-117.7132302,33.7045394],[-117.7132313,33.7045396],[-117.7133031,33.7046033],[-117.7133053,33.7046052],[-117.7135681,33.7047648],[-117.7135687,33.7047652],[-117.713816,33.7050117],[-117.7140833,33.7052779],[-117.7140886,33.7052832],[-117.7156639,33.705887],[-117.7174953,33.7069551],[-117.7175141,33.70697],[-117.7182421,33.7075473],[-117.718548,33.7077899],[-117.7188266,33.7083516],[-117.7194344,33.709121],[-117.7194365,33.7091236],[-117.7196359,33.7092219],[-117.7196387,33.7092233],[-117.7197786,33.7093759],[-117.7197822,33.7093798],[-117.7199024,33.7094603],[-117.7199294,33.7094784],[-117.7199348,33.7094821],[-117.7201466,33.7095727],[-117.7201516,33.7095748],[-117.7201944,33.7096273],[-117.7201983,33.7097049],[-117.7202774,33.7098016],[-117.720282,33.7098072],[-117.7206729,33.7097291],[-117.7206754,33.7097286],[-117.7208795,33.7100673],[-117.7208828,33.7100727],[-117.7220847,33.7097803],[-117.7227949,33.7095379],[-117.7228833,33.7095046],[-117.7229263,33.709486],[-117.7229686,33.7094661],[-117.7230099,33.709445],[-117.7230504,33.7094226],[-117.7230898,33.7093991],[-117.7231282,33.7093744],[-117.7231656,33.7093486],[-117.7232018,33.7093217],[-117.7232369,33.7092937],[-117.7232707,33.7092647],[-117.7233033,33.7092347],[-117.7233345,33.7092037],[-117.7233645,33.7091718],[-117.723393,33.7091391],[-117.7234201,33.7091055],[-117.7234458,33.7090712],[-117.72347,33.7090361],[-117.7234927,33.7090003],[-117.7235138,33.7089638],[-117.7235334,33.7089267],[-117.7237812,33.7084338],[-117.7238944,33.7078831],[-117.7255795,33.7058198],[-117.7263668,33.7049318],[-117.7272332,33.7041038],[-117.727285,33.7040365],[-117.7273448,33.7039588],[-117.7273607,33.7039646],[-117.7278394,33.7041397],[-117.7280808,33.7042409],[-117.7283178,33.704349],[-117.7285501,33.704464],[-117.7291904,33.7048243],[-117.7294988,33.7050184],[-117.7308673,33.7059716],[-117.7314881,33.7064222],[-117.7337295,33.707984],[-117.7341475,33.7083026],[-117.7343433,33.7084732],[-117.7374902,33.7113363],[-117.7375954,33.7114344],[-117.7376469,33.7114843],[-117.7376736,33.7115699],[-117.7377304,33.7116328],[-117.7378006,33.7117105],[-117.7376319,33.7118802],[-117.7375535,33.711969],[-117.7374792,33.7120602],[-117.7374092,33.7121537],[-117.7373435,33.7122494],[-117.7372823,33.7123472],[-117.7372256,33.7124468],[-117.7371956,33.71253],[-117.737144,33.7127734],[-117.7371088,33.7128936],[-117.73722,33.7129186],[-117.7371894,33.7130272],[-117.7371706,33.7130807],[-117.7371495,33.7131337],[-117.7371262,33.713186],[-117.7371007,33.7132375],[-117.737073,33.7132883],[-117.7370432,33.7133381],[-117.736983,33.713316],[-117.7368589,33.7135284],[-117.7367892,33.7136312],[-117.7367147,33.7137316],[-117.736289,33.7142795],[-117.7363441,33.7143094],[-117.7361105,33.7146101],[-117.7360691,33.7145877],[-117.7357095,33.7150137],[-117.7355152,33.7152178],[-117.7353117,33.7154154],[-117.7354759,33.7155381],[-117.7350549,33.7159036],[-117.7348328,33.7160765],[-117.7346033,33.7162425],[-117.7343666,33.7164013],[-117.7341232,33.7165529],[-117.7338734,33.716697],[-117.7336174,33.7168333],[-117.7333557,33.7169618],[-117.7330885,33.7170822],[-117.7328162,33.7171943],[-117.7325393,33.7172981],[-117.732258,33.7173934],[-117.7319727,33.7174801],[-117.7316838,33.717558],[-117.7313917,33.7176271],[-117.7314948,33.717954],[-117.730804,33.7180812],[-117.7304546,33.7181272],[-117.7301033,33.7181614],[-117.7297505,33.7181836],[-117.7297502,33.7181779],[-117.7297379,33.7179915],[-117.7297184,33.7179924],[-117.7273062,33.7181032],[-117.7271168,33.7181004],[-117.7268602,33.7180965],[-117.7268477,33.7180959],[-117.7266375,33.7180859],[-117.7253311,33.7179577],[-117.7251267,33.7179442],[-117.7250242,33.7179424],[-117.7249217,33.7179438],[-117.7248193,33.7179485],[-117.7247172,33.7179565],[-117.7246156,33.7179678],[-117.7245146,33.7179823],[-117.7244142,33.718],[-117.7237511,33.7181283],[-117.723823,33.7183879],[-117.7226595,33.7186129],[-117.7224924,33.7186507],[-117.7224102,33.7186734],[-117.722329,33.7186986],[-117.722249,33.7187263],[-117.7221703,33.7187564],[-117.7202849,33.7195127],[-117.7204026,33.7197175],[-117.7201102,33.7198244],[-117.7199608,33.7198712],[-117.7198095,33.7199136],[-117.7196565,33.7199514],[-117.719502,33.7199847],[-117.7193461,33.7200133],[-117.7191892,33.7200373],[-117.7190526,33.720054],[-117.7190313,33.7200566],[-117.719048,33.7200663],[-117.7190753,33.7200821],[-117.7189962,33.7203502],[-117.7190134,33.7203525],[-117.719027,33.7203552],[-117.7190404,33.7203587],[-117.7190534,33.720363],[-117.719066,33.720368],[-117.7190782,33.7203738],[-117.7190898,33.7203803],[-117.7191009,33.7203874],[-117.7191114,33.7203952],[-117.7191211,33.7204035],[-117.7191302,33.7204125],[-117.7191365,33.7204195],[-117.7191423,33.7204268],[-117.7191476,33.7204343],[-117.7191525,33.7204421],[-117.7191582,33.7204528],[-117.719163,33.7204637],[-117.7191669,33.720475],[-117.7191698,33.7204864],[-117.7191713,33.7204951],[-117.7191723,33.7205038],[-117.7191728,33.7205155],[-117.7191725,33.7205243],[-117.7191716,33.720533],[-117.7191696,33.7205446],[-117.7191667,33.720556],[-117.7191192,33.7207016],[-117.7191106,33.7207322],[-117.7191072,33.7207476],[-117.7191045,33.7207632],[-117.7191025,33.7207788],[-117.7191011,33.7207944],[-117.7191004,33.7208101],[-117.7190942,33.7210652],[-117.7190596,33.721529],[-117.7190249,33.7217596],[-117.7186243,33.7240306],[-117.7186051,33.7240265],[-117.7185468,33.7240141],[-117.7185469,33.7240149],[-117.7186071,33.7245336],[-117.7186159,33.7245638],[-117.7188282,33.7253084],[-117.7184401,33.7259176],[-117.7181908,33.7264998],[-117.7178676,33.7272333],[-117.7175931,33.7284492],[-117.7176708,33.7285972],[-117.7181911,33.7287655],[-117.7178341,33.7294356],[-117.7182099,33.729962],[-117.7175808,33.7303844],[-117.7174084,33.7305723],[-117.7177018,33.730767],[-117.7175676,33.7314583],[-117.7176485,33.7319034],[-117.717112,33.7319715],[-117.7169504,33.7328755],[-117.709944,33.7346734],[-117.7083446,33.7367056],[-117.7076338,33.7368879],[-117.7006578,33.7386775],[-117.7008208,33.7401076],[-117.7008216,33.7401146],[-117.7066887,33.7388425],[-117.7067086,33.7388382],[-117.7068486,33.7404967],[-117.7170955,33.7485344],[-117.7251376,33.7512588],[-117.7308553,33.7543432],[-117.7308693,33.7543508],[-117.7356907,33.7507898],[-117.7357024,33.7507811],[-117.7382756,33.7540491],[-117.7382786,33.7540528],[-117.7415153,33.7539166],[-117.7415347,33.7539157],[-117.7417937,33.7587062],[-117.7416648,33.760752],[-117.7421122,33.7609883],[-117.7461917,33.7631434],[-117.7465629,33.7647605],[-117.7485818,33.7659823],[-117.7523223,33.7674428],[-117.7499904,33.7715362],[-117.7516838,33.7736536],[-117.7516865,33.773657],[-117.7542685,33.773625],[-117.7542624,33.773285],[-117.7542157,33.7706565],[-117.7577824,33.7706122],[-117.7577874,33.7706122],[-117.7577579,33.7708424],[-117.7580252,33.7713065],[-117.7577811,33.7720079],[-117.757182,33.7724837],[-117.7578072,33.7735779],[-117.7578103,33.7735833],[-117.7579007,33.7735821],[-117.7582587,33.7735775],[-117.7585571,33.7735736],[-117.7585715,33.7735734],[-117.7593924,33.7715634],[-117.7594184,33.7714996],[-117.759538,33.7712069],[-117.759671,33.7708395],[-117.7597229,33.7706526],[-117.759773,33.7704652],[-117.7598122,33.7702761],[-117.7598435,33.7700859],[-117.7598657,33.7698948],[-117.7598696,33.7698633],[-117.7598811,33.7697139],[-117.7598819,33.7697034],[-117.7598833,33.769678],[-117.7598871,33.7695856],[-117.7598871,33.7695854],[-117.7598891,33.7695116],[-117.7598896,33.7694421],[-117.7598887,33.7693196],[-117.7597871,33.7652177],[-117.7597875,33.7650888],[-117.759794,33.7648291],[-117.7597947,33.7648199],[-117.759813,33.7646354],[-117.7598344,33.7644419],[-117.7598396,33.7644043],[-117.7598421,33.7643912],[-117.7598658,33.7642493],[-117.7598699,33.7642299],[-117.7599061,33.7640579],[-117.7599388,33.7639313],[-117.7599552,33.7638679],[-117.7599629,33.7638384],[-117.7599668,33.7638263],[-117.7600107,33.7636792],[-117.7600127,33.7636735],[-117.7600237,33.7636414],[-117.760075,33.7634924],[-117.7601479,33.7633078],[-117.7601563,33.7632862],[-117.7601606,33.7632771],[-117.7602272,33.7631251],[-117.7603148,33.762945],[-117.7604104,33.7627678],[-117.7604197,33.7627509],[-117.7605126,33.7625932],[-117.7606226,33.7624219],[-117.7607399,33.7622541],[-117.7607458,33.7622458],[-117.7608639,33.7620896],[-117.7609949,33.761929],[-117.7611327,33.7617724],[-117.7625388,33.7602315],[-117.7628294,33.7598864],[-117.7629266,33.7597562],[-117.7629611,33.7597065],[-117.7630874,33.7595237],[-117.7632037,33.7593364],[-117.7632532,33.7592497],[-117.7632627,33.7592317],[-117.7633113,33.7591455],[-117.7634101,33.7589513],[-117.7634988,33.7587537],[-117.7635149,33.7587177],[-117.7635786,33.7585536],[-117.7636519,33.7583516],[-117.7659686,33.7512854],[-117.7660598,33.7510195],[-117.7663879,33.7500813],[-117.7664338,33.7499512],[-117.7664842,33.7499656],[-117.7665568,33.7496441],[-117.7666168,33.7494052],[-117.7666849,33.7491771],[-117.7667634,33.7489513],[-117.7668521,33.7487281],[-117.7669508,33.7485079],[-117.7670594,33.748291],[-117.7671777,33.7480776],[-117.7673056,33.7478682],[-117.7672451,33.7477601],[-117.7673061,33.7476207],[-117.7673951,33.7476479],[-117.7674561,33.7475085],[-117.7675662,33.7474837],[-117.7677057,33.7472964],[-117.7678452,33.7471229],[-117.7679916,33.7469534],[-117.7681447,33.7467881],[-117.7692358,33.7456945],[-117.769876,33.7450313],[-117.7704862,33.7444246],[-117.770606,33.7442884],[-117.770713,33.7441819],[-117.770847,33.7440654],[-117.7709552,33.7439581],[-117.7709471,33.7438255],[-117.771074,33.7437162],[-117.7709893,33.7436488],[-117.7711519,33.7435032],[-117.7711739,33.7435111],[-117.7713783,33.7434731],[-117.7722248,33.7426256],[-117.7724243,33.7424986],[-117.7737775,33.7411421],[-117.7738676,33.7410174],[-117.7740128,33.7408719],[-117.7741434,33.7407753],[-117.7743137,33.7406045],[-117.7743049,33.7405016],[-117.7743747,33.7404317],[-117.7743545,33.7404176],[-117.7744132,33.7403588],[-117.7745358,33.7403476],[-117.7748572,33.7400254],[-117.7750571,33.7398594],[-117.7779836,33.7369256],[-117.7780738,33.7368008],[-117.778219,33.7366553],[-117.7783496,33.7365587],[-117.7783826,33.7365255],[-117.7783738,33.7364228],[-117.7784433,33.7363531],[-117.7784231,33.7363391],[-117.778482,33.7362799],[-117.7786045,33.7362687],[-117.7789262,33.7359462],[-117.7791261,33.7357801],[-117.7798044,33.7351001],[-117.7799864,33.7349259],[-117.780001,33.7349131],[-117.7800385,33.7348801],[-117.7801644,33.7347694],[-117.78035,33.7346191],[-117.7805428,33.7344755],[-117.7807425,33.7343385],[-117.7809489,33.7342086],[-117.7811854,33.7340727],[-117.7814102,33.7339552],[-117.7815725,33.7338647],[-117.7817205,33.7337983],[-117.7819004,33.7337353],[-117.7820527,33.7336763],[-117.7820981,33.7335795],[-117.7821802,33.7335472],[-117.7821721,33.7335328],[-117.7822566,33.7334996],[-117.7823718,33.7335332],[-117.7828235,33.7333646],[-117.7830996,33.7332856],[-117.7834226,33.7331629],[-117.7836069,33.7330862],[-117.7837625,33.7330165],[-117.7839411,33.7329309],[-117.7840916,33.7328539],[-117.7842396,33.7327735],[-117.7843849,33.7326898],[-117.7845466,33.7325908],[-117.784551,33.7325881],[-117.7847132,33.7324821],[-117.784849,33.7323879],[-117.7849817,33.7322907],[-117.7849998,33.7322766],[-117.7851326,33.7321735],[-117.7852789,33.7320525],[-117.7854007,33.7319458],[-117.785519,33.7318364],[-117.7856359,33.7317223],[-117.7862819,33.7310737],[-117.7864009,33.730937],[-117.7865064,33.7308295],[-117.7866397,33.7307125],[-117.7867473,33.7306048],[-117.7867363,33.7305042],[-117.7868726,33.7303677],[-117.7868543,33.7303549],[-117.7869918,33.7302171],[-117.7871123,33.7302079],[-117.7873356,33.7299835],[-117.7874825,33.7298304],[-117.7876228,33.7296729],[-117.7877562,33.7295114],[-117.7878979,33.729325],[-117.7880163,33.7291554],[-117.7881273,33.7289824],[-117.7882308,33.7288062],[-117.7883293,33.7286218],[-117.7882833,33.728522],[-117.7883932,33.7282805],[-117.7885069,33.7282314],[-117.788561,33.7280913],[-117.7886105,33.72795],[-117.7886554,33.7278077],[-117.7887019,33.7276409],[-117.7889168,33.7268114],[-117.7889876,33.726572],[-117.789072,33.726332],[-117.789169,33.7260953],[-117.7892808,33.725857],[-117.7893464,33.725704],[-117.7894174,33.7255772],[-117.7895156,33.7254372],[-117.7895921,33.7253128],[-117.7895731,33.7252234],[-117.7897083,33.725089],[-117.7895753,33.7249961],[-117.789687,33.7248844],[-117.7898202,33.7248598],[-117.7899545,33.7246386],[-117.7900576,33.7244754],[-117.7900749,33.7244518],[-117.7902211,33.724271],[-117.7903251,33.7241328],[-117.7904416,33.723987],[-117.7905634,33.7238442],[-117.7906904,33.7237047],[-117.790683,33.7236435],[-117.7907545,33.7235716],[-117.7907372,33.7235596],[-117.7908087,33.7234878],[-117.7908828,33.7234821],[-117.7911984,33.7231652],[-117.7914029,33.7229857],[-117.7916763,33.722711],[-117.7917924,33.7225773],[-117.7919607,33.7224083],[-117.7919517,33.7223055],[-117.7921528,33.722095],[-117.7922753,33.7220837],[-117.7927507,33.7216062],[-117.7927439,33.7215443],[-117.7927923,33.7214957],[-117.7928074,33.7215063],[-117.7928558,33.7214577],[-117.7929299,33.721452],[-117.7936515,33.7207272],[-117.7936675,33.7207603],[-117.7935129,33.7209155],[-117.7935319,33.7209288],[-117.7936853,33.7210359],[-117.7936034,33.7211181],[-117.793756,33.7212243],[-117.7947772,33.7203473],[-117.7950997,33.7200703],[-117.7953313,33.7200528],[-117.797858,33.7218072],[-117.7979123,33.7217528],[-117.7993807,33.7202805],[-117.8002435,33.7194153],[-117.8014097,33.7182459],[-117.8016221,33.7180237],[-117.8017579,33.717871],[-117.8018886,33.7177153],[-117.8020748,33.7174762],[-117.802249,33.7172309],[-117.8023582,33.717064],[-117.8024619,33.7168947],[-117.8026068,33.7166364],[-117.8027387,33.7163733],[-117.8028192,33.7161954],[-117.802929,33.7159253],[-117.8029946,33.7157431],[-117.8030542,33.7155596],[-117.8031321,33.7152818],[-117.8031763,33.7150953],[-117.803231,33.7148139],[-117.8036973,33.7120492],[-117.8037447,33.711653],[-117.8037484,33.7112082],[-117.803749,33.7111348],[-117.8037345,33.7109483],[-117.8037334,33.7109338],[-117.8036844,33.71046],[-117.8036521,33.7101475],[-117.8035838,33.7094868],[-117.8035427,33.7089282],[-117.8035295,33.7082037],[-117.8035465,33.7080444],[-117.8036069,33.707482],[-117.8037741,33.706771],[-117.8037921,33.7067124],[-117.8037478,33.7066814],[-117.8013636,33.7050117],[-117.7997515,33.7038826],[-117.7998232,33.7038107],[-117.8054162,33.6981956],[-117.8081713,33.6954326],[-117.8083204,33.6954212],[-117.8088818,33.6948552],[-117.8090186,33.6947966],[-117.8091567,33.6947402],[-117.8092266,33.6947128],[-117.8092958,33.6946856],[-117.8095746,33.694582],[-117.8098364,33.6944846],[-117.8114607,33.6938807],[-117.8125622,33.6934711],[-117.8125645,33.6934754],[-117.8126415,33.6936227],[-117.8126618,33.6936598],[-117.8126848,33.6937018],[-117.8127239,33.6937732],[-117.8127806,33.6938656],[-117.8128142,33.6939205],[-117.8129105,33.6940651],[-117.8130129,33.6942067],[-117.8131211,33.6943453],[-117.8132032,33.6944427],[-117.8132351,33.6944806],[-117.8133547,33.6946125],[-117.8134797,33.6947408],[-117.81361,33.6948654],[-117.8137201,33.6949634],[-117.8137455,33.6949861],[-117.8138859,33.6951027],[-117.8138884,33.6951046],[-117.8140326,33.6952139],[-117.8141811,33.6953233],[-117.814426,33.6954939],[-117.8146349,33.6956393],[-117.8153644,33.6961473],[-117.8153723,33.6961536],[-117.8153753,33.6961564],[-117.8153803,33.6961613],[-117.8153863,33.6961683],[-117.8153914,33.6961757],[-117.8153966,33.696185],[-117.8153999,33.696193],[-117.8154027,33.696203],[-117.8154045,33.6962149],[-117.8154045,33.6962158],[-117.8154046,33.6962241],[-117.8154046,33.6962251],[-117.815404,33.6962301],[-117.8154033,33.6962353],[-117.8154014,33.6962424],[-117.8154002,33.696247],[-117.8153946,33.6962598],[-117.8153901,33.6962668],[-117.8153869,33.6962718],[-117.8153785,33.6962815],[-117.8153702,33.6962891],[-117.8153621,33.6962952],[-117.8142835,33.6970084],[-117.8159984,33.698202],[-117.8197619,33.7008216],[-117.8198558,33.7007273],[-117.8211313,33.6994463],[-117.82219,33.6983828],[-117.8265171,33.6940365],[-117.8267477,33.6941971],[-117.8271542,33.6944802],[-117.8329651,33.6985268],[-117.8396079,33.7031526],[-117.8423039,33.7050299],[-117.843201,33.7056545],[-117.8432208,33.7056683],[-117.8432803,33.7057098],[-117.8442084,33.7047765],[-117.8470384,33.7019306],[-117.848829,33.7001299],[-117.8488403,33.7001185],[-117.8489575,33.7002001],[-117.8548559,33.7043028],[-117.8548705,33.704313],[-117.8551617,33.7045155],[-117.8553023,33.7046133],[-117.8553037,33.704612],[-117.8560705,33.703841],[-117.8561873,33.7037244],[-117.8578231,33.702032],[-117.8600103,33.6993875],[-117.8601777,33.6986715],[-117.859214,33.6974258],[-117.8594412,33.6971976],[-117.8592039,33.697033],[-117.859309,33.6969273],[-117.8596291,33.6970346],[-117.8601169,33.6971169],[-117.8611093,33.6968855],[-117.8619602,33.696949],[-117.862662,33.696727],[-117.863691,33.695808],[-117.8642773,33.6952019],[-117.8653093,33.6941353],[-117.8655592,33.6938299],[-117.865731,33.6936435],[-117.8660548,33.6932924],[-117.866187,33.6931429],[-117.8663759,33.6929083],[-117.8669447,33.692202],[-117.86738,33.6916837],[-117.8675814,33.6914461],[-117.8675834,33.6914485],[-117.8680221,33.6909298],[-117.8682421,33.6906288],[-117.8686581,33.6900568],[-117.8687051,33.6899078],[-117.8687104,33.6898794],[-117.8687282,33.689803],[-117.8687403,33.6897173],[-117.8687541,33.6896428],[-117.868756,33.6896064],[-117.8687605,33.6895742],[-117.8687617,33.6894961],[-117.8687661,33.6894118],[-117.8687635,33.6893771],[-117.868764,33.6893439],[-117.868755,33.689262],[-117.8687434,33.6891566],[-117.8687388,33.6891145],[-117.868697,33.6889296],[-117.8686836,33.688891],[-117.8686811,33.6888798],[-117.8686691,33.688849],[-117.8686202,33.6887081],[-117.8685888,33.6886436],[-117.8685811,33.6886238],[-117.868566,33.6885967],[-117.8685162,33.6884945],[-117.8684556,33.6883988],[-117.8684451,33.6883798],[-117.868435,33.6883661],[-117.8683995,33.68831],[-117.8683201,33.68821],[-117.8683001,33.6881828],[-117.8682888,33.6881706],[-117.8682469,33.6881178],[-117.8681446,33.6880144],[-117.8681321,33.6880008],[-117.8681252,33.6879948],[-117.868071,33.68794],[-117.8679522,33.6878426],[-117.8679411,33.6878328],[-117.8679318,33.6878259],[-117.867874,33.6877785],[-117.8678251,33.6877461],[-117.8678221,33.6877438],[-117.8677952,33.6877262],[-117.8676578,33.6876351],[-117.8674944,33.6875454],[-117.8673778,33.6874932],[-117.8673451,33.6874778],[-117.8673255,33.6874698],[-117.8672511,33.6874365],[-117.8669956,33.6873494],[-117.866933,33.6873356],[-117.866312,33.6871983],[-117.8661935,33.6871699],[-117.8655182,33.6869696],[-117.8648716,33.6867114],[-117.8639865,33.6863051],[-117.8627174,33.6883077],[-117.8623706,33.6888549],[-117.861499,33.6884688],[-117.8607294,33.6896825],[-117.8595676,33.6891679],[-117.8595693,33.6891651],[-117.8603359,33.6879534],[-117.8603328,33.6879519],[-117.8594653,33.6875684],[-117.8594669,33.6875659],[-117.8610901,33.6850051],[-117.8603009,33.6846561],[-117.8599206,33.6844879],[-117.8570832,33.6832345],[-117.8571082,33.6831959],[-117.8587333,33.6806807],[-117.8637809,33.6728679],[-117.8638532,33.6727445],[-117.8639194,33.6726188],[-117.8639344,33.6725858],[-117.8639776,33.6724904],[-117.8640337,33.6723613],[-117.8640815,33.6722297],[-117.864123,33.6720968],[-117.8642102,33.671764],[-117.8642169,33.6717384],[-117.8640394,33.6717501],[-117.8639665,33.6717548],[-117.8638088,33.6717579],[-117.8635722,33.6717527],[-117.8634151,33.6717409],[-117.8632583,33.6717274],[-117.8630249,33.6716946],[-117.8629038,33.6716713],[-117.8627943,33.6716502],[-117.8625674,33.6715943],[-117.8623448,33.6715271],[-117.8621992,33.6714762],[-117.8619937,33.6713942],[-117.8618548,33.6713316],[-117.8616524,33.6712291],[-117.8614577,33.6711167],[-117.861272,33.6709951],[-117.8542248,33.666087],[-117.8627978,33.6574691],[-117.8628759,33.6573905],[-117.8627503,33.6566504],[-117.8627061,33.6564339],[-117.8626486,33.6561949],[-117.8625859,33.6559819],[-117.8625129,33.6557711],[-117.8624297,33.6555631],[-117.8623365,33.6553579],[-117.8622335,33.6551562],[-117.862112,33.6549419],[-117.8618509,33.6544785],[-117.8607715,33.6526327],[-117.8606567,33.6524244],[-117.8605496,33.6522133],[-117.8604503,33.6519996],[-117.8603589,33.6517834],[-117.8602754,33.6515649],[-117.8602,33.6513444],[-117.8601327,33.6511221],[-117.8600782,33.6509167],[-117.8600512,33.6507891],[-117.8600203,33.6506357],[-117.8599954,33.6504816],[-117.8599795,33.6503528],[-117.8599619,33.650198],[-117.8599519,33.6500687],[-117.8599442,33.6499133],[-117.8599426,33.6497578],[-117.8599424,33.6496283],[-117.8599497,33.6494729],[-117.8599586,33.6493176],[-117.859972,33.6491885],[-117.8599864,33.6490594],[-117.8600095,33.6489051],[-117.8600385,33.6487516],[-117.8600655,33.648616],[-117.8601595,33.648004],[-117.860189,33.6477754],[-117.8602071,33.6475511],[-117.8602146,33.6473264],[-117.8602115,33.6471017],[-117.8601954,33.6468523],[-117.8601698,33.6466285],[-117.8601337,33.6464058],[-117.860087,33.6461844],[-117.8599953,33.6457953],[-117.8598762,33.6447063],[-117.8596925,33.6447366],[-117.8596553,33.6445743],[-117.8596191,33.6444115],[-117.859593,33.6442675],[-117.8595733,33.6441228],[-117.8595551,33.6439779],[-117.8595447,33.6438325],[-117.859536,33.6436871],[-117.8595335,33.6435414],[-117.8595358,33.6433958],[-117.8595444,33.6432503],[-117.8595545,33.6431049],[-117.8595709,33.6429599],[-117.8595943,33.6428156],[-117.859619,33.6426714],[-117.859651,33.6425283],[-117.8596845,33.6423854],[-117.8597243,33.6422435],[-117.859659,33.642078],[-117.8595795,33.6418803],[-117.8594944,33.6416842],[-117.8594184,33.641522],[-117.8593418,33.6413604],[-117.8592435,33.6411688],[-117.8591437,33.6409776],[-117.859037,33.6407891],[-117.858947,33.6406325],[-117.8588336,33.6404467],[-117.8587348,33.6402938],[-117.858615,33.6401109],[-117.8585099,33.639961],[-117.8583826,33.6397817],[-117.8582487,33.6396057],[-117.8581135,33.6394304],[-117.8579957,33.6392873],[-117.8578531,33.6391162],[-117.8577045,33.6389487],[-117.8575797,33.6388097],[-117.8574252,33.638646],[-117.8572927,33.6385121],[-117.8571327,33.6383522],[-117.8569679,33.6381956],[-117.8567997,33.6380418],[-117.856656,33.6379162],[-117.8565115,33.6377912],[-117.8563342,33.6376445],[-117.856183,33.6375253],[-117.8560007,33.6373831],[-117.8558131,33.6372456],[-117.8556246,33.6371092],[-117.8517523,33.634395],[-117.8515603,33.6342637],[-117.8513872,33.6341526],[-117.8512131,33.6340425],[-117.8510344,33.6339377],[-117.8508548,33.633834],[-117.8506717,33.6337347],[-117.8504853,33.6336398],[-117.850298,33.6335461],[-117.8501076,33.633457],[-117.8499143,33.6333724],[-117.8497201,33.6332891],[-117.8494894,33.6331991],[-117.8492909,33.6331233],[-117.8490891,33.6330537],[-117.8488868,33.6329853],[-117.8486816,33.6329231],[-117.8422108,33.6309819],[-117.8373431,33.6295223],[-117.8370379,33.6294262],[-117.8367698,33.6293336],[-117.8364722,33.6292218],[-117.8362115,33.6291157],[-117.8359227,33.6289886],[-117.8356702,33.6288692],[-117.835422,33.6287437],[-117.8351783,33.6286123],[-117.8349097,33.6284576],[-117.8346761,33.6283138],[-117.8344476,33.6281645],[-117.8342243,33.6280096],[-117.8340066,33.6278495],[-117.8337683,33.627663],[-117.8335628,33.6274919],[-117.8333565,33.6273098],[-117.8304557,33.6246701],[-117.8302645,33.624501],[-117.8300851,33.6243531],[-117.8299042,33.6242066],[-117.8297174,33.6240652],[-117.8294987,33.6239086],[-117.8293016,33.6237774],[-117.8291031,33.6236477],[-117.8288995,33.6235236],[-117.8286623,33.6233872],[-117.8284497,33.6232742],[-117.828236,33.6231627],[-117.8280168,33.6230589],[-117.8277966,33.6229567],[-117.8275723,33.6228608],[-117.8273442,33.6227714],[-117.8271153,33.6226836],[-117.8249791,33.6219089],[-117.8247511,33.6218252],[-117.8245239,33.6217342],[-117.8243323,33.621651],[-117.8241097,33.6215525],[-117.823892,33.6214465],[-117.8237063,33.6213545],[-117.8234948,33.62124],[-117.8233145,33.6211407],[-117.82311,33.6210177],[-117.8229067,33.6208933],[-117.8227378,33.6207808],[-117.822542,33.6206483],[-117.8223528,33.6205092],[-117.822192,33.6203888],[-117.8220366,33.6202634],[-117.8218567,33.620116],[-117.8216823,33.6199639],[-117.8215381,33.6198295],[-117.821395,33.6196942],[-117.8212358,33.6195309],[-117.8210784,33.6193664],[-117.8209503,33.6192211],[-117.8208024,33.6190505],[-117.8206824,33.6189004],[-117.8205442,33.6187243],[-117.8204131,33.6185443],[-117.8202876,33.6183616],[-117.8201861,33.6182021],[-117.8200859,33.6180422],[-117.8199778,33.6178519],[-117.8198715,33.6176608],[-117.8197882,33.6174943],[-117.8184857,33.6148628],[-117.8183577,33.6146144],[-117.8182194,33.6143694],[-117.8180712,33.6141286],[-117.8179323,33.6139176],[-117.8177668,33.6136847],[-117.8175923,33.6134565],[-117.8174298,33.6132578],[-117.8172387,33.613039],[-117.8170391,33.6128257],[-117.8168313,33.6126179],[-117.8166398,33.6124381],[-117.816417,33.6122415],[-117.8161866,33.6120512],[-117.8159756,33.6118874],[-117.8157589,33.6117288],[-117.8155087,33.6115569],[-117.8152516,33.6113921],[-117.8149884,33.6112343],[-117.8147494,33.6111001],[-117.814475,33.6109562],[-117.8142265,33.6108347],[-117.813942,33.6107053],[-117.8136853,33.6105967],[-117.8133918,33.6104823],[-117.8130939,33.6103761],[-117.8128258,33.6102886],[-117.8125543,33.6102079],[-117.8122461,33.6101249],[-117.8119348,33.6100503],[-117.8116208,33.6099843],[-117.8113047,33.6099268],[-117.8110216,33.6098832],[-117.8067842,33.609284],[-117.8065165,33.609242],[-117.8064189,33.6092267],[-117.8060925,33.609166],[-117.8057685,33.6090967],[-117.8054118,33.6090095],[-117.8050938,33.6089224],[-117.8047449,33.6088154],[-117.804435,33.6087103],[-117.8041149,33.6085915],[-117.802155,33.607831],[-117.8007813,33.607298],[-117.8002092,33.607076],[-117.7998415,33.6069333],[-117.7990187,33.6066141],[-117.7954341,33.6052232],[-117.7952518,33.6051524],[-117.7908007,33.6034252],[-117.7906184,33.6033564],[-117.7902865,33.6032403],[-117.7900844,33.6031768],[-117.7898818,33.6031146],[-117.7897109,33.6030676],[-117.7895054,33.6030125],[-117.7893324,33.6029711],[-117.7891592,33.6029306],[-117.7889498,33.6028867],[-117.7887742,33.602854],[-117.7885632,33.602816],[-117.7883865,33.6027892],[-117.7881735,33.6027584],[-117.7879599,33.6027325],[-117.7855874,33.6025024],[-117.7851984,33.6024604],[-117.784854,33.6024158],[-117.7844682,33.6023572],[-117.7840844,33.6022899],[-117.783703,33.6022139],[-117.7833661,33.6021391],[-117.7829898,33.6020469],[-117.7826166,33.6019461],[-117.7822469,33.6018369],[-117.7818808,33.6017194],[-117.7815187,33.6015936],[-117.7812003,33.6014749],[-117.7808464,33.6013337],[-117.7805357,33.6012015],[-117.7801908,33.6010453],[-117.7798827,33.600897],[-117.7784897,33.6002078],[-117.778219,33.6000785],[-117.7779648,33.5999656],[-117.7776746,33.5998458],[-117.7774126,33.5997463],[-117.7771137,33.5996421],[-117.7768448,33.5995564],[-117.7765388,33.5994679],[-117.776264,33.5993963],[-117.7761466,33.6005724],[-117.7759124,33.602919],[-117.7759119,33.6029195],[-117.7758113,33.6030208],[-117.7756878,33.6044679],[-117.7752856,33.6091835],[-117.7745016,33.6183745],[-117.769249,33.620431],[-117.7680509,33.6209001],[-117.7659624,33.6217325],[-117.7642328,33.6224219],[-117.7579901,33.6248967],[-117.7568817,33.6253361],[-117.7568632,33.6253434],[-117.7567074,33.6254051],[-117.7557471,33.6257858],[-117.7556865,33.6258098],[-117.7556805,33.6258062],[-117.7535051,33.6266688],[-117.7532751,33.6264088],[-117.7526681,33.6257168],[-117.7531691,33.6242208],[-117.7534491,33.6233708],[-117.7517931,33.6222898],[-117.7517731,33.6222608],[-117.7513291,33.6213308],[-117.7509361,33.6205158],[-117.7484051,33.6192698],[-117.7478391,33.6189918],[-117.7477851,33.6190658],[-117.7476287,33.6192836],[-117.7476338,33.6192838],[-117.7463223,33.6210959],[-117.7463158,33.6211049],[-117.7450835,33.6228114],[-117.7450256,33.6228916],[-117.743132,33.6255138],[-117.7422788,33.6279973],[-117.7413735,33.6306324],[-117.7413665,33.6306597],[-117.7412907,33.6309555],[-117.7412661,33.6309526],[-117.7412639,33.6309523],[-117.7412289,33.6310545],[-117.7411673,33.631234],[-117.7404837,33.6311233],[-117.7404699,33.6311207],[-117.7404605,33.6311203],[-117.7404509,33.6311205],[-117.7404371,33.6311189],[-117.7403481,33.6311162],[-117.7403333,33.6311152],[-117.7403187,33.6311134],[-117.7401251,33.631082],[-117.7401107,33.6310792],[-117.7400955,33.6310758],[-117.740014,33.6310499],[-117.7399993,33.6310457],[-117.7399905,33.6310442],[-117.7399814,33.6310431],[-117.7399676,33.6310397],[-117.739933,33.6310593],[-117.7398637,33.6310985],[-117.7397587,33.6310804],[-117.7397589,33.6310686],[-117.7396539,33.6310505],[-117.7395868,33.6309674],[-117.7383951,33.6307743],[-117.7383814,33.6307717],[-117.7383722,33.6307713],[-117.7383607,33.6307704],[-117.7383491,33.6307698],[-117.7383395,33.6307706],[-117.7383259,33.6307699],[-117.7382391,33.6307727],[-117.7382262,33.6307719],[-117.7382154,33.630773],[-117.7382062,33.6307714],[-117.7381954,33.6307699],[-117.7380341,33.6307438],[-117.7380185,33.6307401],[-117.7380076,33.6307386],[-117.737997,33.6307366],[-117.7379805,33.630732],[-117.7378282,33.6306849],[-117.7378137,33.6306809],[-117.7378049,33.6306794],[-117.737796,33.6306783],[-117.7377824,33.630675],[-117.7377082,33.6306629],[-117.7373276,33.6306012],[-117.7355372,33.630311],[-117.7355235,33.6303084],[-117.7355143,33.6303081],[-117.7355027,33.6303072],[-117.7354911,33.6303066],[-117.7354815,33.6303074],[-117.7354679,33.6303066],[-117.73538,33.6303095],[-117.7353675,33.6303087],[-117.7353569,33.6303099],[-117.735348,33.6303083],[-117.7353374,33.6303069],[-117.7352813,33.630298],[-117.7352322,33.6302909],[-117.735176,33.6302823],[-117.7351612,33.630279],[-117.735151,33.6302778],[-117.7351411,33.6302762],[-117.7351264,33.6302718],[-117.73497,33.6302286],[-117.7349558,33.6302245],[-117.7349464,33.630223],[-117.7349367,33.630222],[-117.7349224,33.630219],[-117.7348933,33.630215],[-117.7348709,33.6302124],[-117.7348417,33.6302085],[-117.7347432,33.630261],[-117.7345935,33.6302293],[-117.7345886,33.6302438],[-117.7345827,33.6302648],[-117.7345777,33.6302794],[-117.7344288,33.6302452],[-117.7343548,33.6301518],[-117.7325364,33.6299484],[-117.7311666,33.6298091],[-117.7311528,33.6298071],[-117.7311434,33.6298073],[-117.7311318,33.6298069],[-117.7311202,33.6298069],[-117.7311104,33.6298082],[-117.731097,33.6298081],[-117.7310111,33.6298151],[-117.731,33.6298156],[-117.7309908,33.6298149],[-117.7309798,33.6298162],[-117.7309668,33.6298143],[-117.7309103,33.6298076],[-117.7308605,33.6298022],[-117.7308039,33.6297953],[-117.7307879,33.6297922],[-117.7307764,33.6297911],[-117.7307653,33.6297895],[-117.7307495,33.6297852],[-117.7305922,33.6297448],[-117.7305747,33.6297405],[-117.7305618,33.6297393],[-117.7305483,33.6297365],[-117.7304877,33.6297286],[-117.7304342,33.6297223],[-117.7303737,33.6297143],[-117.7302746,33.6297015],[-117.7301746,33.6297697],[-117.7299631,33.6297608],[-117.7299606,33.6297494],[-117.7296117,33.6297361],[-117.7295184,33.6296468],[-117.729495,33.6296397],[-117.7294762,33.6296352],[-117.7294544,33.6296307],[-117.7294347,33.6296282],[-117.7294104,33.6296237],[-117.7285985,33.6295186],[-117.7285342,33.6295086],[-117.7284751,33.6294984],[-117.7284168,33.6294858],[-117.728354,33.62947],[-117.7282931,33.6294547],[-117.7282369,33.6294426],[-117.7281798,33.6294327],[-117.7281176,33.629423],[-117.7278478,33.6293881],[-117.7278341,33.629386],[-117.7278247,33.6293859],[-117.7278132,33.6293853],[-117.7278016,33.6293852],[-117.7277919,33.6293863],[-117.7277784,33.6293859],[-117.7276933,33.6293941],[-117.7276759,33.6293928],[-117.7276637,33.6293916],[-117.7276494,33.6293903],[-117.7275929,33.6293827],[-117.7275421,33.6293771],[-117.7274858,33.6293698],[-117.7274704,33.6293667],[-117.7274597,33.6293658],[-117.7274493,33.6293642],[-117.7274341,33.6293601],[-117.7272759,33.6293198],[-117.7272623,33.629316],[-117.7272533,33.6293148],[-117.7272442,33.6293141],[-117.7272304,33.6293113],[-117.7271819,33.6293056],[-117.7270816,33.6293694],[-117.7268615,33.6293466],[-117.7268603,33.6293705],[-117.7267056,33.6293557],[-117.7266302,33.6292732],[-117.7251303,33.6290949],[-117.724749,33.6290554],[-117.7247033,33.6290494],[-117.7246627,33.6290433],[-117.7246226,33.6290356],[-117.724578,33.629025],[-117.7245398,33.6290157],[-117.7245062,33.6290092],[-117.724472,33.6290045],[-117.7244331,33.6289981],[-117.7242382,33.6289737],[-117.7242433,33.6289295],[-117.7205865,33.6284927],[-117.721166,33.6291054],[-117.7214691,33.6294165],[-117.7217822,33.6297191],[-117.7221058,33.6300136],[-117.7223273,33.6302055],[-117.722463,33.6303193],[-117.7250419,33.6324579],[-117.7252653,33.6326513],[-117.7255917,33.6329489],[-117.7259075,33.6332544],[-117.726112,33.6334624],[-117.7264095,33.6337805],[-117.7266015,33.6339965],[-117.7267885,33.6342157],[-117.727013,33.6344914],[-117.7266347,33.6347061],[-117.7256313,33.6335777],[-117.7253631,33.6333139],[-117.7251141,33.6331418],[-117.7246898,33.6327458],[-117.724337,33.6324529],[-117.7215753,33.6301026],[-117.7207515,33.6294481],[-117.720529,33.6292895],[-117.7202877,33.6291515],[-117.7200307,33.6290351],[-117.7199517,33.6290049],[-117.7164316,33.6355428],[-117.7164224,33.6355599],[-117.7174805,33.6359585],[-117.7175095,33.6359694],[-117.7174837,33.6360015],[-117.7174338,33.6360636],[-117.7174113,33.6360992],[-117.7174035,33.6361182],[-117.7173952,33.6361579],[-117.7173969,33.636198],[-117.7174016,33.6362178],[-117.7174116,33.6362435],[-117.7174343,33.6362789],[-117.7174653,33.6363097],[-117.7175032,33.6363344],[-117.7175402,33.6363499],[-117.717693,33.6364004],[-117.7181648,33.6366004],[-117.7184303,33.6366912],[-117.7184455,33.6366984],[-117.7184603,33.6367134],[-117.7184665,33.6367321],[-117.7184636,33.6367499],[-117.7184457,33.6367941],[-117.7183602,33.636973],[-117.7182528,33.6371435],[-117.7181246,33.6373037],[-117.7181008,33.6373298],[-117.7179503,33.6374757],[-117.7177824,33.6376077],[-117.7175989,33.6377242],[-117.7174364,33.6378083],[-117.717408,33.63782],[-117.7173783,33.6378291],[-117.7173476,33.6378356],[-117.7172916,33.6378405],[-117.7171804,33.6378413],[-117.7171274,33.6378418],[-117.717096,33.6378448],[-117.7170661,33.6378533],[-117.7170389,33.6378668],[-117.7170107,33.6378897],[-117.7168825,33.6378049],[-117.715858,33.6388852],[-117.7156812,33.6390717],[-117.7148342,33.6385093],[-117.7147479,33.6386717],[-117.7146963,33.6387687],[-117.7125492,33.6427522],[-117.7111999,33.6452641],[-117.7108716,33.6458693],[-117.7106808,33.6462279],[-117.7101789,33.6468211],[-117.7052001,33.6527416],[-117.7006145,33.6581945],[-117.6996115,33.659387],[-117.6995538,33.6594557],[-117.7057806,33.6638137],[-117.705789,33.6638195],[-117.7036139,33.6650483],[-117.6998748,33.6671608],[-117.697917,33.6657923],[-117.6977552,33.6656791],[-117.6955902,33.6641658],[-117.6948361,33.6650601],[-117.6911573,33.6694381],[-117.6895158,33.6713875],[-117.683046,33.67907],[-117.6810801,33.6814196],[-117.6802074,33.6824501],[-117.6792281,33.6836167],[-117.6780863,33.684977],[-117.6780385,33.685034],[-117.6780379,33.6850347]]]}}
]
}
