{"type":"FeatureCollection","features":[{"type":"Feature","geometry":{"type":"Polygon","coordinates":[[[-118.62230499978089,34.391457999722938],[-118.62227800001673,34.39099599977046],[-118.62188899985429,34.390641000298466],[-118.62158799955543,34.390307000293426],[-118.62130700024633,34.389981999830468],[-118.62122000020771,34.389856000098519],[-118.62092300010677,34.389424000107077],[-118.6205990002417,34.388907000030251],[-118.62057999997512,34.38888700021694],[-118.62047500039311,34.38877900010457],[-118.61987899964315,34.388434999751468],[-118.61804800043046,34.387327000056217],[-118.6174740003201,34.387047999965418],[-118.61703099973099,34.38688099963364],[-118.61627000002288,34.386698999642938],[-118.61526499991731,34.386484999677258],[-118.61443899991188,34.386236000054048],[-118.61278199987812,34.38577799971241],[-118.61269499983952,34.385753999631888],[-118.61159400037278,34.385430000095624],[-118.6112720001575,34.385353999995402],[-118.61107799998874,34.385336000215148],[-118.60945100009222,34.38528300018082],[-118.6083509995521,34.385234999729143],[-118.60804400030375,34.385200000185534],[-118.60786699985343,34.38515700004848],[-118.60777200031718,34.385106000046889],[-118.60770700001986,34.385031999800383],[-118.60766699983688,34.384980999722664],[-118.60764900029355,34.384870000274603],[-118.60765900033928,34.384775999765459],[-118.6077249995632,34.384699999812881],[-118.60790399966335,34.384615999902167],[-118.60802000001431,34.384539999804353],[-118.60809299980923,34.38446399963761],[-118.60809199998434,34.384401999801646],[-118.60807100006792,34.384349999999458],[-118.60797999983133,34.384273000318636],[-118.60772600028645,34.384130000193949],[-118.60748000023914,34.384022999961665],[-118.60725000008536,34.383896000069683],[-118.60698300012167,34.383698000309138],[-118.60666199973132,34.383526000249468],[-118.60636200015566,34.383374000230226],[-118.60623999995694,34.383396000064764],[-118.6060559998339,34.383407000350545],[-118.60575600025825,34.383399999697055],[-118.60528599990498,34.383348000013946],[-118.60516200005641,34.383341000096905],[-118.60499800002491,34.383276999981035],[-118.60477000041925,34.383233000243649],[-118.60462999977885,34.383234999693087],[-118.60448699966371,34.383244999904754],[-118.60439799997525,34.383271000153016],[-118.60426200043113,34.383328000355327],[-118.60401499966062,34.383480999809166],[-118.60382200021508,34.38367900008285],[-118.60366200038152,34.38383100028976],[-118.60357600016778,34.383892999807244],[-118.60352599993908,34.383899000332065],[-118.60344300009839,34.383872000191033],[-118.60337799980107,34.383788000190933],[-118.60332900029557,34.383666999742637],[-118.60330599983104,34.383528999783728],[-118.60321499959446,34.383295000203944],[-118.60308999992097,34.383031000006923],[-118.60298399961576,34.382875000173229],[-118.60294799963076,34.382735000189115],[-118.60284100039893,34.382357999687507],[-118.60271300035242,34.381961999838055],[-118.60266700032167,34.381807999720309],[-118.60265700027594,34.381633999997547],[-118.60268700041316,34.381483999741825],[-118.60268800023808,34.381362000294487],[-118.60264999970491,34.381268999672749],[-118.60258100010796,34.381164999851585],[-118.60254599994785,34.381084999844248],[-118.60254400029804,34.380979999672284],[-118.60249900009217,34.380756000150399],[-118.60220100016636,34.380750000141745],[-118.60183899976809,34.380696000044374],[-118.60159400044405,34.380646999802281],[-118.60129399997008,34.380550000100953],[-118.60096900028006,34.380388000058772],[-118.60060100003403,34.380236999664071],[-118.59998199971783,34.380073000232933],[-118.5994660002321,34.379979000269486],[-118.59883600004527,34.379882999929812],[-118.59843400036235,34.379797000103551],[-118.59790799993257,34.379615000283344],[-118.59770200006824,34.379491000057129],[-118.59739300027177,34.379329000190481],[-118.59714300002652,34.379227999872498],[-118.59600700039969,34.3789399996474],[-118.59569100003218,34.378827000050521],[-118.59543400011422,34.378694000277214],[-118.59514000038637,34.378537999777777],[-118.59491899955512,34.378465999962536],[-118.59446599981858,34.37840000026285],[-118.59406199958755,34.378376999703725],[-118.59320700016809,34.378385000189056],[-118.59297799983926,34.378327000174949],[-118.59257799980615,34.378151000321026],[-118.59237299976674,34.377921999852013],[-118.59225899996392,34.377624000185101],[-118.59216500025259,34.377517999958336],[-118.59285200034088,34.377570999717747],[-118.59290800041737,34.377638000233006],[-118.59292299958769,34.377690999916474],[-118.59296899961839,34.377736999922362],[-118.59299200008294,34.377790000284605],[-118.59300799997648,34.377863000099175],[-118.59306900007584,34.377943000218934],[-118.59311400028169,34.377992999976961],[-118.59316799981003,34.37804200028917],[-118.5932210004118,34.378069000085802],[-118.59326700044257,34.378107000114355],[-118.59332799964361,34.378141999657174],[-118.59340399981161,34.378151999735707],[-118.59351900033762,34.378156999774475],[-118.59361800007186,34.37814500012572],[-118.59371699980603,34.378122999652973],[-118.5937700004078,34.37809900034393],[-118.59382399993616,34.378061000311746],[-118.59389300043146,34.378000000341082],[-118.59393799973898,34.377953999738281],[-118.5941140003644,34.377863000099175],[-118.59421300009859,34.377836000236115],[-118.59432000022873,34.377844000031665],[-118.5945939998651,34.377840000133986],[-118.59474000035328,34.377809000364373],[-118.59488400029332,34.377771000200589],[-118.59498399985243,34.377736999922362],[-118.59505199962449,34.377702999630344],[-118.59511299972387,34.377642000140334],[-118.595143999686,34.377573000043746],[-118.59521999985401,34.377447000172069],[-118.59528099995335,34.377358999737332],[-118.59533399965683,34.377309999766936],[-118.59535799994626,34.377221999929695],[-118.59535799994626,34.377112000003052],[-118.5954180002207,34.377008000209187],[-118.59544900018284,34.376939999760836],[-118.59548699981768,34.376878999715089],[-118.5955019998863,34.376805999784246],[-118.59556399981058,34.376722000110114],[-118.59557899987919,34.376557999726771],[-118.59560900001642,34.376493000182222],[-118.5956630004431,34.376421000091646],[-118.59582300027668,34.376322000329537],[-118.59587000013232,34.376314999825155],[-118.59592200001087,34.376306999883511],[-118.59598300011022,34.376272000315254],[-118.59607500017172,34.376200000034757],[-118.59612799987518,34.376119999732836],[-118.59621200043908,34.376024000159404],[-118.59628100003606,34.375920999938629],[-118.59633399973951,34.375863999884388],[-118.59638700034128,34.375826000320934],[-118.59649399957307,34.375776000010596],[-118.59656300006837,34.375733999667567],[-118.59675399986409,34.375696000045124],[-118.59686099999418,34.375693000230335],[-118.59691399969765,34.375700000045256],[-118.59698999986563,34.375661999665951],[-118.59702800039877,34.375605000176883],[-118.59698300019292,34.375517000030968],[-118.59691399969765,34.375357000270277],[-118.5968829997355,34.375260999822281],[-118.59689100013142,34.375212000107261],[-118.59689100013142,34.375131000152358],[-118.59695999972843,34.374997999699524],[-118.5970369997213,34.37478300003157],[-118.5973349996471,34.374507999720848],[-118.59751999959506,34.374249000268748],[-118.59767299975594,34.37386500015112],[-118.59767199993102,34.373699999895813],[-118.59777200038846,34.373546000155144],[-118.59783799961238,34.373243000156577],[-118.59798999994834,34.373013000137952],[-118.5980429996518,34.372820000212045],[-118.59803000013129,34.372187999824114],[-118.59809600025356,34.37202299997265],[-118.59830799996566,34.371831000221661],[-118.59844699988282,34.371335999806931],[-118.59862599998297,34.371236999966179],[-118.59977199965554,34.370951000180874],[-118.60007700015238,34.370802999815254],[-118.60034199956793,34.370279999675041],[-118.6006269999733,34.370032999826194],[-118.60069300009553,34.369741999838268],[-118.60082600016491,34.369522000213514],[-118.60085899977689,34.369302000011004],[-118.60081199992121,34.368905999970153],[-118.60091099965544,34.368835000298567],[-118.60147499972001,34.368895000004116],[-118.60152800032181,34.36884000015209],[-118.60167399991165,34.36881200007879],[-118.60189200036986,34.36859200023622],[-118.6022100003872,34.368438000002676],[-118.60264100038242,34.368355999897659],[-118.60319100020332,34.368015000263838],[-118.60339000039494,34.367986999914805],[-118.6034360004257,34.368031000247285],[-118.60366800022928,34.367986999914805],[-118.60370099984125,34.367948999743867],[-118.60415199992798,34.367948999743867],[-118.60437100021109,34.367882999913377],[-118.60453600006753,34.367635000130555],[-118.60473500025914,34.367470000209202],[-118.60486800032852,34.367058000240661],[-118.59592299983579,34.367094999786097],[-118.58461999987563,34.367127000101263],[-118.58467199975416,34.367580999733676],[-118.58458600043876,34.367817000030911],[-118.58413500035203,34.368597000104238],[-118.58376399973297,34.368888999887162],[-118.58355200002086,34.36914700007754],[-118.58343300019517,34.369778999681351],[-118.58330099995069,34.369862000131597],[-118.58308199966757,34.370300999733644],[-118.58286300028276,34.370548999780688],[-118.58266499991606,34.371114999679399],[-118.58257899970235,34.371235999727489],[-118.58218100021737,34.371522000022715],[-118.58190900023082,34.371960999823109],[-118.58169099977262,34.372015999850447],[-118.58135900040992,34.371989000326849],[-118.58129300028767,34.371962000053124],[-118.58104700024039,34.37193400028179],[-118.58086200029246,34.372017000079808],[-118.58074299956844,34.372044000335777],[-118.58061000039736,34.372044000335777],[-118.57988099957802,34.371944999848836],[-118.57974800040692,34.371944999848836],[-118.57964899977442,34.372017000079808],[-118.57943700006233,34.372054999888391],[-118.57933699960488,34.371999999886668],[-118.57933699960488,34.371808000082957],[-118.57938400035887,34.371505999964597],[-118.57927100038094,34.371395999945584],[-118.57918500016723,34.371395999945584],[-118.57913800031157,34.371422999660304],[-118.57891999985337,34.371643000224402],[-118.57880699987544,34.371643000224402],[-118.57877400026352,34.371615999839157],[-118.57874099975322,34.371571999906635],[-118.57872099966173,34.371379000367902],[-118.57865399971459,34.371297000175744],[-118.57860799968384,34.371285999782124],[-118.57852200036842,34.371297000175744],[-118.57830999975801,34.371488999667754],[-118.57817699968861,34.371505999964597],[-118.57812399998515,34.371461999974301],[-118.57809100037321,34.37121499990328],[-118.57801100000725,34.371022000283496],[-118.57795800030382,34.370912000370403],[-118.57787899976277,34.37082999972111],[-118.57779300044737,34.37082999972111],[-118.57767999957115,34.370896000195778],[-118.57756099974549,34.370912000370403],[-118.57732899994186,34.370912000370403],[-118.57729499960668,34.370884999749549],[-118.57742799967608,34.370593999755357],[-118.5774150001556,34.370527999784244],[-118.57738199964531,34.370500000275065],[-118.57728200008623,34.370500000275065],[-118.57708299989457,34.37069300035607],[-118.57696400006888,34.370704000086015],[-118.57687100018245,34.370635000205581],[-118.57685100009098,34.37062099972858],[-118.57679800038753,34.370554999778683],[-118.57681799958071,34.370389999676526],[-118.57668600023455,34.370170999780463],[-118.57659900019591,34.369923000097359],[-118.57668500040963,34.369659000010664],[-118.57661900028738,34.369603999918738],[-118.5764870000429,34.369605000176897],[-118.57616900002559,34.369660000268134],[-118.57610200007845,34.369616000049717],[-118.57608899965963,34.36947799992268],[-118.5762550002393,34.369109999955327],[-118.57618800029216,34.369027000243015],[-118.5761420002614,34.368999999756106],[-118.57574399987814,34.369027999766573],[-118.57569100017471,34.368999999756106],[-118.57564500014395,34.368955999932538],[-118.57564500014395,34.368735999726617],[-118.57561199963368,34.368625999777755],[-118.57549199998309,34.368532999843133],[-118.57532600030174,34.368477999753509],[-118.57524699976071,34.368423000369241],[-118.57518099963846,34.368352000288333],[-118.57506099998785,34.36813199997929],[-118.57499499986561,34.368077000367933],[-118.57488199988774,34.368060000116735],[-118.57472999955175,34.368114999739262],[-118.57466400032783,34.368114999739262],[-118.57455100034991,34.368021999978886],[-118.57453100025845,34.367730999679111],[-118.57449799974815,34.36769199985261],[-118.57441800028052,34.367648000083598],[-118.57412000035468,34.367648000083598],[-118.57378200024588,34.367741999797978],[-118.57374899973563,34.367714000099205],[-118.57353000035081,34.367752999915453],[-118.57326500003693,34.367659000213372],[-118.5730990003556,34.367467000099751],[-118.57296700011112,34.367202999688509],[-118.57292600010322,34.367159999950047],[-118.56415600041097,34.367187000288517],[-118.56413799996929,34.367252999925775],[-118.56422400018303,34.367434999914451],[-118.56431700006944,34.368077999902816],[-118.56433899981076,34.368133000255042],[-118.56441599980366,34.368325000325321],[-118.56461499999527,34.368600000173217],[-118.56462800041406,34.368780999933726],[-118.56411100020513,34.369413000074161],[-118.56373399973826,34.369671999649583],[-118.56362800033136,34.370276000157624],[-118.56329600007037,34.370539999782864],[-118.563018000236,34.370771000162719],[-118.56257999966978,34.370946999954008],[-118.56213600015407,34.370896999697031],[-118.56138700014151,34.371018000060012],[-118.5611660002086,34.371047999877831],[-118.5611029995611,34.371056999821128],[-118.56085499986398,34.371090999845173],[-118.56070000005327,34.371111999700538],[-118.56079299993971,34.371257999784895],[-118.56111500015497,34.371764000251289],[-118.56184999992381,34.37290999992166],[-118.56226599985042,34.3735619998236],[-118.56324300036691,34.375131000152358],[-118.56390899964046,34.376177000354303],[-118.56521099984695,34.378222000251839],[-118.56547899963554,34.378644000196282],[-118.56559699963631,34.378819000348877],[-118.56631600040996,34.379930999742712],[-118.56680699978131,34.380697000170031],[-118.56706500042247,34.381313999819071],[-118.5673750000439,34.38227100007208],[-118.56784899969682,34.383365000127753],[-118.56820199987425,34.38439800021721],[-118.56882299984026,34.385950999656792],[-118.5688830001147,34.386076000015507],[-118.56913300035994,34.386567999881279],[-118.56943200011071,34.38734400010344],[-118.56946899992063,34.387441000088756],[-118.5697280003867,34.388142999911416],[-118.56993400025102,34.388633000170501],[-118.57016699987952,34.389292000138639],[-118.57032300041348,34.389929999787604],[-118.57037500029199,34.390357000081607],[-118.57045499975965,34.391058999914122],[-118.57055799969181,34.391356999951142],[-118.57063200020995,34.391602999923542],[-118.57119399972642,34.393931999814413],[-118.57123100043468,34.3940839999375],[-118.57127499991726,34.3942690000708],[-118.57205900008992,34.397529000115476],[-118.57217600026577,34.398013999945718],[-118.57226800032728,34.398395999931587],[-118.57231500018297,34.398590000118325],[-118.57261599958353,34.399842999717919],[-118.57394700010232,34.403056999644811],[-118.57412000035468,34.403442999742673],[-118.57619999998772,34.408084000273789],[-118.57624500019357,34.408184999869135],[-118.57630799994276,34.40832399973646],[-118.57644000018725,34.408286000083592],[-118.57651800000504,34.408474999863891],[-118.57763000024075,34.410895999971089],[-118.57763899956328,34.410920000253206],[-118.57766500040086,34.410980000187294],[-118.57776400013505,34.411217000210264],[-118.57778800042449,34.411217999971313],[-118.57795999995362,34.411223000258452],[-118.57799199974068,34.411224000019367],[-118.57899400037154,34.411252999751639],[-118.57891700037864,34.411728000298318],[-118.57887299999771,34.412222000050818],[-118.57887299999771,34.412546000365417],[-118.57890599960969,34.412942000033624],[-118.57897199973191,34.413270999947102],[-118.5790489997248,34.413539999770627],[-118.57944299991009,34.414557999940165],[-118.57965600034542,34.415049999850972],[-118.57971900009461,34.415165000369235],[-118.57983700009541,34.415382999951035],[-118.57998199986034,34.41566000027926],[-118.58022000041004,34.416028999882542],[-118.58160399973399,34.417988999753412],[-118.59464699956854,34.40894100030534],[-118.59672499955175,34.407500000310911],[-118.59756599962581,34.407490000032332],[-118.60329499996038,34.407424000239281],[-118.60353500015989,34.407421000078955],[-118.60372599995563,34.407136999736181],[-118.6037820000321,34.406990999957216],[-118.60384999980415,34.406821999767956],[-118.60386099967482,34.406641999782963],[-118.60388400013937,34.406462000151791],[-118.60394000021586,34.406303999876407],[-118.60407499993507,34.406168999643938],[-118.60417600021739,34.406055999743032],[-118.60430000006596,34.405944000254692],[-118.60444700037905,34.40587600033335],[-118.60459299996893,34.405763000036693],[-118.60467199961164,34.40562799967239],[-118.60480700022916,34.405470999875057],[-118.60494199994837,34.405379999758544],[-118.60510000013214,34.405290000116075],[-118.60522399998071,34.405290000116075],[-118.60536999957056,34.405302000321036],[-118.6055050001881,34.40527899974137],[-118.60555000039392,34.405166000120644],[-118.60565199960284,34.405076000247959],[-118.6058659998631,34.405054000181998],[-118.60611399956022,34.405054000181998],[-118.60623699958388,34.405064999845116],[-118.60633899969113,34.405031000275336],[-118.60643999997346,34.404964000188833],[-118.60656399982201,34.404884999785637],[-118.60667699979992,34.404851000142656],[-118.60680099964848,34.404771999632743],[-118.60693600026602,34.404648000351912],[-118.60706000011456,34.404524000146189],[-118.60725099991028,34.404389000006077],[-118.60741999996469,34.404242999878392],[-118.6075549996839,34.404130000340764],[-118.6076450000956,34.404097000237051],[-118.6079270001279,34.404074000067304],[-118.60803900028088,34.404074000067304],[-118.60811799992358,34.404130000340764],[-118.60824199977213,34.404141999970918],[-118.60831000044254,34.404130000340764],[-118.60838900008525,34.404063000273901],[-118.6084789995986,34.404029000296887],[-118.60861400021614,34.404029000296887],[-118.60872600036915,34.40398399976111],[-118.60880500001187,34.403904999914857],[-118.60887299978393,34.403815000168052],[-118.60898599976183,34.403781000090241],[-118.60905299970899,34.403691000209996],[-118.60919900019715,34.403431999866307],[-118.60923299963403,34.403318999974545],[-118.60929000043377,34.403162000291339],[-118.60935700038091,34.40298199984354],[-118.60940199968843,34.402858000133392],[-118.60948100022947,34.402768000001487],[-118.60950399979568,34.402632000129131],[-118.60950399979568,34.402092000133024],[-118.60948100022947,34.401674999904898],[-118.60945899958983,34.401550999740138],[-118.60940199968843,34.401404999848531],[-118.60940199968843,34.401292000184007],[-118.60943600002362,34.401201999850024],[-118.60948100022947,34.400987999902625],[-118.60949200010012,34.400829999666392],[-118.6095819996135,34.400774000149092],[-118.60968399972074,34.400717999853036],[-118.60969499959138,34.40061600024999],[-118.60968399972074,34.400538000077212],[-118.60976300026175,34.400379999732472],[-118.60990899985163,34.400177000212167],[-118.61001000013398,34.400053000051102],[-118.61009999964735,34.400031000146811],[-118.6103139999076,34.400019999821886],[-118.61050600042651,34.400008000341749],[-118.61061900040444,34.400008000341749],[-118.61063000027508,34.399928999706269],[-118.61061900040444,34.399827999779795],[-118.61064100014573,34.399715000209248],[-118.61075400012363,34.399693000216089],[-118.61085500040599,34.399703999842785],[-118.61103500033103,34.399738000094843],[-118.61114800030893,34.399738000094843],[-118.61120400038543,34.39965899994575],[-118.61114800030893,34.399557999693364],[-118.61102399956205,34.399377999645893],[-118.61091099958415,34.399208999644181],[-118.61095599978999,34.39912999973685],[-118.61106899976792,34.39895000025119],[-118.61111399997374,34.398678999644616],[-118.61110300010309,34.398566999917193],[-118.61102399956205,34.398431999801574],[-118.61101199986651,34.398377999990849],[-118.61099000012521,34.398273999927738],[-118.61100099999584,34.398082000326923],[-118.61106899976792,34.397811999795572],[-118.61111399997374,34.397676999944473],[-118.61109200023245,34.397608999975425],[-118.61099000012521,34.397676999944473],[-118.6108999997135,34.3977330000519],[-118.6108210000708,34.3977330000519],[-118.6106749995826,34.397744999858276],[-118.6105740001986,34.397767000363544],[-118.6104610002207,34.397755999741008],[-118.61038199967963,34.397711000278868],[-118.61023600008978,34.39769899972638],[-118.61011200024122,34.397666000051288],[-118.61006700003537,34.397631999698611],[-118.61011200024122,34.397519000127609],[-118.61020199975459,34.397462999876971],[-118.61034800024277,34.397462999876971],[-118.61051700029718,34.397484999715189],[-118.61060699981054,34.397407000330119],[-118.61061900040444,34.397282999770582],[-118.61051700029718,34.397147999807309],[-118.6104610002207,34.397000999714976],[-118.61048299996199,34.396742000159414],[-118.61055099973404,34.396393000226055],[-118.61060699981054,34.395975999765099],[-118.61058500006924,34.395773999884426],[-118.61052800016783,34.395605000017014],[-118.61055099973404,34.395446999994554],[-118.61058500006924,34.395188000077276],[-118.61065200001639,34.395052999699558],[-118.61073099965911,34.394940000352584],[-118.61079900032948,34.394861000121566],[-118.61096800038389,34.394839000334876],[-118.61118199974582,34.394828000068685],[-118.61140699987671,34.394861000121566],[-118.61154199959593,34.394929000099715],[-118.61169999977967,34.395018999767814],[-118.61190200034436,34.395120000309568],[-118.61215000004145,34.395244000367697],[-118.6123640003017,34.39531200003465],[-118.61255599992232,34.395345999847436],[-118.61269099964154,34.395345999847436],[-118.61281500038842,34.395333999697066],[-118.61297199984895,34.39531200003465],[-118.61327599962256,34.395278000208087],[-118.61344499967694,34.395278000208087],[-118.61364800006653,34.395323000237198],[-118.6138279999916,34.395345999847436],[-118.61404200025186,34.395345999847436],[-118.61421100030626,34.395323000237198],[-118.61435799972104,34.395288999673866],[-118.61446999987402,34.39525599978969],[-118.61460499959324,34.395188000077276],[-118.61477399964764,34.395142999975583],[-118.61496799981639,34.395110999987367],[-118.61485099964051,34.395078000033052],[-118.61481399983062,34.395060000119869],[-118.61506900009874,34.394999999887098],[-118.6152420003511,34.394964999978576],[-118.61539799998671,34.394964999978576],[-118.61557100023907,34.394982999912187],[-118.61581300008839,34.394913000066218],[-118.61610699981627,34.394879000077552],[-118.61629699978707,34.394810000101728],[-118.61650500019952,34.394653999978907],[-118.61662599967504,34.394549999735517],[-118.61671199988875,34.394411999925723],[-118.61688500014114,34.394048999645868],[-118.61704099977675,34.393755000176668],[-118.61713899968602,34.393557000012684],[-118.61716200015056,34.393512999747948],[-118.61719599958742,34.393322000318385],[-118.6172480003643,34.39314900003977],[-118.6172480003643,34.392977000123842],[-118.61723099974753,34.392803999873379],[-118.61723099974753,34.392595999848737],[-118.61728299962606,34.392492000013171],[-118.61742099971833,34.392405999794995],[-118.61764599984922,34.392319000242864],[-118.61788799969858,34.392301999723408],[-118.61809600011104,34.392268000156676],[-118.61828600008182,34.392198000263846],[-118.61840699955732,34.392111999743591],[-118.61857999980971,34.391938999929174],[-118.61871799990196,34.391714000081194],[-118.61887400043588,34.391471999681684],[-118.61894300003287,34.391247000061007],[-118.61901199962982,34.390952999645222],[-118.61906400040667,34.390797999751577],[-118.61915100044533,34.390676999797726],[-118.6192369997607,34.390589999931137],[-118.61927199992084,34.390485999827099],[-118.61935800013455,34.390296000172967],[-118.61949600022683,34.390139999791188],[-118.61967699997679,34.389948000062709],[-118.62230499978089,34.391457999722938]]]},"properties":{"AREALAND":"16533804","AREAWATER":"2399","BASENAME":"Stevenson Ranch","GEOID":"0674130","NAME":"Stevenson Ranch CDP","PLACE":"74130","STATE":"06"}}]}