{
  "type": "FeatureCollection",
  "features": [
    {
      "type": "Feature",
      "properties": {
        "FHSZ": "Very High"
      },
      "geometry": {
        "type": "MultiPolygon",
        "coordinates": [
          [
            [
              [-117.62, 33.92],
              [-117.61, 33.92],
              [-117.61, 33.93],
              [-117.62, 33.93],
              [-117.62, 33.92]
            ]
          ],
          [
            [
              [-117.6, 33.92],
              [-117.59, 33.92],
              [-117.59, 33.93],
              [-117.6, 33.93],
              [-117.6, 33.92]
            ]
          ]
        ]
      }
    },
    {
      "type": "Feature",
      "properties": {
        "FHSZ": "NonWildland"
      },
      "geometry": {
        "type": "Polygon",
        "coordinates": [
          [
            [-117.58, 33.92],
            [-117.57, 33.92],
            [-117.57, 33.93],
            [-117.58, 33.93],
            [-117.58, 33.92]
          ]
        ]
      }
    },
    {
      "type": "Feature",
      "properties": {
        "FHSZ": "Moderate"
      },
      "geometry": {
        "type": "Polygon",
        "coordinates": [
          [
            [-117.68, 33.92],
            [-117.67, 33.92],
            [-117.67, 33.93],
            [-117.68, 33.93],
            [-117.68, 33.92]
          ]
        ]
      }
    },
    {
      "type": "Feature",
      "properties": {
        "FHSZ": "High"
      },
      "geometry": {
        "type": "Polygon",
        "coordinates": [
          [
            [-117.66, 33.92],
            [-117.63, 33.92],
            [-117.63, 33.95],
            [-117.66, 33.95],
            [-117.66, 33.92]
          ],
          [
            [-117.65, 33.93],
            [-117.65, 33.94],
            [-117.64, 33.94],
            [-117.64, 33.93],
            [-117.65, 33.93]
          ]
        ]
      }
    }
  ]
}
